GSAT0222 (GALILEO 26)   
1 43565U 18060B   23184.96843627 -.00000069  00000+0  00000+0 0  9995
2 43565  57.2775  10.8796 0001303 324.7598  35.2634  1.70475606 30815
GSAT0219 (GALILEO 23)   
1 43566U 18060C   23189.29501208 -.00000085  00000+0  00000+0 0  9991
2 43566  57.2792  10.7650 0000995 334.5785  25.4369  1.70475666 30863
GSAT0220 (GALILEO 24)   
1 43567U 18060D   23190.10197941 -.00000087  00000+0  00000+0 0  9991
2 43567  57.2790  10.7430 0000918 312.1976  47.8148  1.70475456 30856
BEIDOU-3 M13            
1 43622U 18072A   23193.31358976 -.00000075  00000+0  00000+0 0  9996
2 43622  55.7315  98.2750 0006693 301.6744  58.2742  1.86231712 32717
BEIDOU-3 M14            
1 43623U 18072B   23193.17904879 -.00000074  00000+0  00000+0 0  9999
2 43623  55.7333  98.2721 0005010 330.8187  29.1672  1.86231714 32714
GPS BIII-1              
1 43873U 18109A   23192.80655294 -.00000002  00000+0  00000+0 0  9991
2 43873  55.1802 134.5201 0024778 193.6535 338.4209  2.00566348 33531
METEOR-M2 2             
1 44387U 19038A   23193.47038683  .00000043  00000+0  38543-4 0  9997
2 44387  98.7768 157.3254 0000845 163.3133 196.8073 14.23791433208907
GPS BIII-2              
1 44506U 19056A   23193.00471704 -.00000092  00000+0  00000+0 0  9991
2 44506  55.8109  13.5895 0034493 183.0116  32.5851  2.00564779 28580
BEIDOU-3 M23            
1 44542U 19061A   23191.41042939  .00000075  00000+0  00000+0 0  9994
2 44542  54.4954 218.9528 0007904 332.7844  27.2306  1.86231272 25816
BEIDOU-3 M24            
1 44543U 19061B   23193.17027348  .00000091  00000+0  00000+0 0  9995
2 44543  54.4937 218.8622 0005657 312.6757  59.0549  1.86231653 25843
BEIDOU-3 M21            
1 44793U 19078A   23192.32939629 -.00000111  00000+0  00000+0 0  9994
2 44793  54.7920 337.2074 0005820  27.9826 332.0432  1.86232228 24693
BEIDOU-3 M22            
1 44794U 19078B   23193.53399169 -.00000117  00000+0  00000+0 0  9994
2 44794  54.7648 337.1490 0003648  27.4346 332.5771  1.86232672 24717
ELEKTRO-L 3             
1 44903U 19095A   23193.36577407 -.00000096  00000+0  00000+0 0  9995
2 44903   0.0601 183.5229 0001414 309.1570   4.9482  1.00271082 12959
GPS BIII-3              
1 45854U 20041A   23192.99071163 -.00000085  00000+0  00000+0 0  9998
2 45854  55.8352  70.8697 0033623 185.8372 323.1082  2.00564849 22544
COSMOS 2547             
1 46805U 20075A   23193.09325181  .00000081  00000+0  00000+0 0  9991
2 46805  64.6174 228.3297 0008696 243.0583 116.9257  2.13103097 21088
GPS BIII-4              
1 46826U 20078A   23191.54496961 -.00000002  00000+0  00000+0 0  9994
2 46826  54.3370 254.3326 0034155 193.0549 327.4360  2.00562573 19986
GSAT0223 (GALILEO 27)   
1 49809U 21116A   23189.95670759 -.00000087  00000+0  00000+0 0  9996
2 49809  57.2699  10.6431 0002379 138.8441 222.2543  1.70475544  9865
GSAT0224 (GALILEO 28)   
1 49810U 21116B   23190.35773473 -.00000088  00000+0  00000+0 0  9992
2 49810  57.2717  10.6307 0002467 125.7421 233.9543  1.70475586  9899
GOES 18                 
1 51850U 22021A   23192.50743631  .00000096  00000+0  00000+0 0  9995
2 51850   0.0369 187.1486 0000347 306.0267 201.6345  1.00270919  5052
